OUFTI-1                 
1 41458U 16025C   22075.44102199  .00015029  00000+0  67712-3 0  9994
2 41458  98.1752 235.2124 0149282 220.6624 138.3382 15.11649457323518
E-ST@R-II               
1 41459U 16025D   22075.39693780  .00014881  00000+0  68144-3 0  9995
2 41459  98.1727 233.8838 0151982 224.5738 134.3205 15.10805286323430
AAUSAT 4                
1 41460U 16025E   22075.44238692  .00025229  00000+0  10576-2 0  9993
2 41460  98.1708 239.3729 0136060 203.3489 156.1424 15.15368697323833
AIST-2D (RS-48)         
1 41465U 16026B   22075.48684206  .00011990  00000+0  31130-3 0  9999
2 41465  97.0714 315.0271 0011938 107.6841  14.2244 15.39038379329221
NUSAT-1 (FRESCO)        
1 41557U 16033B   22075.51549975  .00011996  00000+0  38827-3 0  9992
2 41557  97.3856 173.2631 0011414 355.6305  61.3916 15.32131510323144
NUSAT-2 (BATATA)        
1 41558U 16033C   22075.52520525  .00011593  00000+0  35181-3 0  9997
2 41558  97.4023 178.4616 0010420 346.4597  24.3885 15.34209019323392
CARTOSAT-2C             
1 41599U 16040A   22075.46882041  .00002934  00000+0  14210-3 0  9996
2 41599  97.4997 135.8228 0014543 145.2203 272.8897 15.19266018317810
SATHYABAMASAT           
1 41600U 16040B   22075.41570562  .00012665  00000+0  44427-3 0  9991
2 41600  97.2346 130.2128 0013500  94.1141 266.1643 15.29478970318664
LAPAN-A3                
1 41603U 16040E   22075.52074677  .00001837  00000+0  87174-4 0  9998
2 41603  97.2202 116.5494 0014946 123.9543   8.1138 15.20372493317917
BIROS                   
1 41604U 16040F   22075.54812598  .00003303  00000+0  14083-3 0  9991
2 41604  97.2245 123.4283 0013624 100.6533 259.6239 15.23528625318314
SWAYAM                  
1 41607U 16040J   22075.12565018  .00011821  00000+0  42254-3 0  9995
2 41607  97.2302 128.3805 0013377  95.8299 264.4467 15.28882694318506
BEESAT-4                
1 41619U 16040W   22075.42365969  .00011165  00000+0  40628-3 0  9998
2 41619  97.2311 128.6626 0011587  89.9728 270.2840 15.28331797306505
3CAT-2                  
1 41732U 16051B   22075.38201824  .00011362  00000+0  37774-3 0  9997
2 41732  97.3781 358.7134 0009997 262.2024 217.0643 15.31294425311078
PRATHAM                 
1 41783U 16059A   22075.56828969  .00000387  00000+0  83353-4 0  9996
2 41783  97.9269 120.7880 0034834 106.9023 253.6003 14.63257344292041
ALSAT 1N                
1 41789U 16059G   22075.50664516  .00000886  00000+0  17468-3 0  9999
2 41789  97.9294 125.0814 0029728  91.8554 268.6061 14.64568335292267
LISHUI 1-01             
1 41845U 16066E   22075.47270924  .00018282  00000+0  20801-2 0  9995
2 41845  98.7259 199.8463 0233184   0.4556 359.6725 14.68564262283166
CARTOSAT-2D             
1 41948U 17008A   22075.36088296  .00003623  00000+0  17484-3 0  9990
2 41948  97.4269 136.1101 0005494 292.6477  67.4180 15.19301602281664
NAYIF-1 (EO-88)         
1 42017U 17008BX  22075.41930563  .00011660  00000+0  38680-3 0  9998
2 42017  97.2808 143.0571 0004930 206.1949 153.9044 15.31392059282824
ZHUHAI-1 02 (CAS-4B)    
1 42759U 17034B   22075.47517865  .00003899  00000+0  24177-3 0  9993
2 42759  43.0161 124.8874 0007038  58.5370  76.5432 15.11083735262285
ZHUHAI-1 01 (CAS-4A)    
1 42761U 17034D   22075.51751958  .00003940  00000+0  24360-3 0  9995
2 42761  43.0175 123.5108 0007215  63.7451  76.6606 15.11174262262295
UCLSAT                  
1 42765U 17036A   22075.36472692  .00008725  00000+0  32824-3 0  9999
2 42765  97.2120 121.0397 0008360 298.6761  61.3637 15.27329480263633
NIUSAT                  
1 42766U 17036B   22075.57655183  .00006060  00000+0  24834-3 0  9993
2 42766  97.2155 116.7714 0012639 298.5772  61.4194 15.24560971262649
CARTOSAT-2E             
1 42767U 17036C   22075.46535764  .00003457  00000+0  16731-3 0  9998
2 42767  97.4663 137.1170 0007631 348.5406 120.2795 15.19227748262248
LITUANICASAT-2          
1 42768U 17036D   22075.58875861  .00015054  00000+0  50791-3 0  9997
2 42768  97.2206 123.2146 0010424 278.6195  81.3865 15.30741821263029
AALTO-1                 
1 42775U 17036L   22075.58087942  .00005090  00000+0  21150-3 0  9996
2 42775  97.2113 116.8274 0011319 298.2638  61.7457 15.24183016262621
URSA MAIOR              
1 42776U 17036M   22075.59114553  .00005620  00000+0  23035-3 0  9990
2 42776  97.2127 117.4828 0011054 296.9135  63.0973 15.24599583262653
COMPASS 2               
1 42777U 17036N   22075.60473787  .00011424  00000+0  40671-3 0  9994
2 42777  97.2188 122.9401 0008916 282.3895  77.6348 15.29070058262949
MAX VALIER SAT          
1 42778U 17036P   22075.34882650  .00005929  00000+0  23796-3 0  9991
2 42778  97.2198 119.6950 0009618 299.2357  60.7920 15.25300373262708
PEGASUS                 
1 42784U 17036V   22075.56743069  .00007021  00000+0  26998-3 0  9994
2 42784  97.2132 120.5895 0009155 300.9794  59.0545 15.26669809262834
NUDTSAT                 
1 42787U 17036Y   22075.60047161  .00017927  00000+0  61957-3 0  9992
2 42787  97.2177 124.1278 0008028 288.1640  71.8724 15.29943679262885
SUCHAI                  
1 42788U 17036Z   22075.58955613  .00008581  00000+0  31698-3 0  9995
2 42788  97.2141 122.0241 0008507 295.4421  64.5938 15.27940134262993
SKCUBE                  
1 42789U 17036AA  22075.09035220  .00009563  00000+0  35822-3 0  9999
2 42789  97.2141 121.0966 0008548 298.7631  61.2749 15.27445533262819
VZLUSAT-1               
1 42790U 17036AB  22075.60222491  .00011591  00000+0  40272-3 0  9995
2 42790  97.2167 124.1090 0007578 287.6721  72.3693 15.29872725263035
ROBUSTA-1B              
1 42792U 17036AD  22075.59739946  .00008772  00000+0  32493-3 0  9996
2 42792  97.2137 122.0890 0008078 296.6989  63.3423 15.27843998262938
D-SAT                   
1 42794U 17036AF  22075.55260549  .00002687  00000+0  23219-3 0  9997
2 42794  97.4538  85.8855 0125156  36.8207 324.1526 14.92127988257625
NORSAT 2                
1 42828U 17042D   22075.57796446  .00001586  00000+0  15990-3 0  9998
2 42828  97.4431 297.0739 0013203 320.5945  39.4313 14.92378066254312
TECHNOSAT               
1 42829U 17042E   22075.58269060  .00000980  00000+0  10278-3 0  9998
2 42829  97.4338 295.0853 0013165 323.5054  36.5267 14.91588867254244
2017-042F               
1 42830U 17042F   22075.59632071  .00002890  00000+0  27607-3 0  9993
2 42830  97.4480 298.9370 0012847 312.8476  47.1664 14.93956916254419
FLYING LAPTOP           
1 42831U 17042G   22075.55606984  .00001373  00000+0  14199-3 0  9991
2 42831  97.4360 295.3587 0012967 324.1231  35.9150 14.91566597254242
CORVUS BC2              
1 42846U 17042X   22075.57651730  .00001251  00000+0  12661-3 0  9995
2 42846  97.4366 298.0834 0008423 315.1029  44.9509 14.92614538254424
CORVUS BC1              
1 42847U 17042Y   22075.59654435  .00000965  00000+0  98590-4 0  9990
2 42847  97.4369 298.3911 0008032 314.3346  45.7215 14.92713551254435
SIMPL                   
1 42983U 98067NF  22075.25654680  .00054793  00000+0  30408-3 0  9993
2 42983  51.6355 309.6430 0002355 249.3756 110.6993 15.78969568250133
CZ-4C R/B               
1 43012U 17072C   22075.58631508  .00000226  00000+0  57761-4 0  9998
2 43012  98.7096 107.6561 0126427 241.1853 117.6603 14.56274487230347
RADFXSAT (FOX-1B)       
1 43017U 17073E   22075.60816592  .00002935  00000+0  22538-3 0  9997
2 43017  97.6867 333.5943 0252664 131.4447 230.8773 14.80540572233373
EAGLESAT 1              
1 43018U 17073F   22075.47275071  .00004693  00000+0  34816-3 0  9999
2 43018  97.6893 334.9270 0247320 126.7989 235.6198 14.82209176233314
INS-1C                  
1 43116U 18004F   22075.43837799  .00008824  00000+0  32948-3 0  9994
2 43116  97.3841 152.2599 0007417 329.5879  30.4929 15.27592388232121
FLOCK 3P'-3             
1 43119U 18004J   22075.15489956  .00006527  00000+0  25757-3 0  9992
2 43119  97.3832 150.3419 0008486 341.7053  18.3879 15.25850746231986
FLOCK 3P'-2             
1 43120U 18004K   22075.19737246  .00004942  00000+0  19846-3 0  9997
2 43120  97.3840 150.0585 0008691 343.2080  16.8869 15.25390111231968
FLOCK 3P'-1             
1 43121U 18004L   22075.20869374  .00016086  00000+0  52509-3 0  9993
2 43121  97.3843 153.7860 0006642 324.7421  35.3380 15.31829901232141
FLOCK 3P'-4             
1 43122U 18004M   22075.51369136  .00004476  00000+0  17976-3 0  9998
2 43122  97.3846 150.5251 0008484 343.6466  16.4497 15.25434527232013
MICROMAS-2A             
1 43131U 18004W   22075.45799325  .00016771  00000+0  55140-3 0  9994
2 43131  97.3830 154.8232 0006416 323.9207  36.1600 15.31589484232328
PICSAT                  
1 43132U 18004X   22075.16725735  .00011248  00000+0  40616-3 0  9993
2 43132  97.3799 152.2226 0007444 336.9735  23.1170 15.28627298232140
CNUSAIL-1               
1 43133U 18004Y   22075.48704375  .00006735  00000+0  25835-3 0  9997
2 43133  97.3763 150.9047 0007971 341.1027  18.9915 15.26789570232100
2018-004Z               
1 43134U 18004Z   22075.17318464  .00008949  00000+0  33129-3 0  9998
2 43134  97.3786 151.6683 0007569 339.5759  20.5177 15.27870983232116
FOX-1D (AO-92)          
1 43137U 18004AC  22075.45409933  .00007407  00000+0  27893-3 0  9993
2 43137  97.3767 151.5583 0007384 340.8436  19.2524 15.27369320232140
STEP CUBE LAB           
1 43138U 18004AD  22075.16403466  .00014944  00000+0  50701-3 0  9995
2 43138  97.3831 154.1241 0006598 332.8251  27.2643 15.30598301232255
XIAOXIANG-2             
1 43155U 18008A   22075.48344523  .00006489  00000+0  36022-3 0  9996
2 43155  97.3646 136.9099 0018546 107.4266   0.0402 15.13921143229203
ZHOU ENLAI              
1 43156U 18008B   22075.48255557  .00006886  00000+0  38581-3 0  9998
2 43156  97.3702 136.7653 0015677 107.5970 359.9033 15.13610795229132
QUANTUTONG 1            
1 43158U 18008D   22075.40121822  .00006617  00000+0  37928-3 0  9995
2 43158  97.3633 134.8385 0014446 107.4327 314.0385 15.12819471229038
